STARLINK-2396           
1 47815U 21018AE  26068.71700811 -.00002539  00000+0 -73640-4 0  9998
2 47815  53.1602 242.5663 0001192  95.5807 264.5329 15.30191012276727
ION SCV-017             
1 63230U 25052W   26068.71648816  .00006457  00000+0  24539-3 0  9998
2 63230  97.4016 324.7516 0023746  44.9875 315.3282 15.26881798 54851
